{"type": "FeatureCollection", "features": [ {"type": "Feature", "properties": {"norad_id": 41774, "name": "SKYSAT-C3", "group": "resource", "lat": 10.5267960140914, "lon": -163.46643219537154, "alt_km": 435.22449814696483, "timestamp": "2025-12-07T05:38:09.565414+00:00", "meta": {"OBJECT_NAME": "SKYSAT-C3", "OBJECT_ID": "2016-058E", "EPOCH": "2025-12-06T14:54:26.640288", "MEAN_MOTION": 15.44085474, "ECCENTRICITY": 0.00014956, "INCLINATION": 96.9301, "RA_OF_ASC_NODE": 14.6535, "ARG_OF_PERICENTER": 104.7782, "MEAN_ANOMALY": 255.3634, "EPHEMERIS_TYPE": 0, "CLASSIFICATION_TYPE": "U", "NORAD_CAT_ID": 41774, "ELEMENT_SET_NO": 999, "REV_AT_EPOCH": 51631, "BSTAR": 0.00060121172, "MEAN_MOTION_DOT": 0.00027459, "MEAN_MOTION_DDOT": 0}, "tle": {"line1": "1 41774U 16058E   25340.62114167  .00027459  00000+0  60121-3 0  9994", "line2": "2 41774  96.9301  14.6535 0001495 104.7782 255.3634 15.44085474516311"}}, "geometry": {"type": "Point", "coordinates": [-163.46643219537154, 10.5267960140914]}}, {"type": "Feature", "properties": {"norad_id": 41785, "name": "ALSAT 1B", "group": "resource", "lat": 15.249537338222549, "lon": -8.874334877180683, "alt_km": 657.0518548544514, "timestamp": "2025-12-07T05:38:09.565424+00:00", "meta": {"OBJECT_NAME": "ALSAT 1B", "OBJECT_ID": "2016-059C", "EPOCH": "2025-12-06T14:53:02.560992", "MEAN_MOTION": 14.72065917, "ECCENTRICITY": 0.00105398, "INCLINATION": 97.7816, "RA_OF_ASC_NODE": 352.674, "ARG_OF_PERICENTER": 121.1534, "MEAN_ANOMALY": 239.0709, "EPHEMERIS_TYPE": 0, "CLASSIFICATION_TYPE": "U", "NORAD_CAT_ID": 41785, "ELEMENT_SET_NO": 999, "REV_AT_EPOCH": 49224, "BSTAR": 0.00015111142, "MEAN_MOTION_DOT": 9.03e-06, "MEAN_MOTION_DDOT": 0}, "tle": {"line1": "1 41785U 16059C   25340.62016853  .00000903  00000+0  15111-3 0  9994", "line2": "2 41785  97.7816 352.6740 0010539 121.1534 239.0709 14.72065917492240"}}, "geometry": {"type": "Point", "coordinates": [-8.874334877180683, 15.249537338222549]}}, {"type": "Feature", "properties": {"norad_id": 41787, "name": "PATHFINDER 1", "group": "resource", "lat": -8.729737087261663, "lon": 163.0557935530976, "alt_km": 674.006183685985, "timestamp": "2025-12-07T05:38:09.565434+00:00", "meta": {"OBJECT_NAME": "PATHFINDER 1", "OBJECT_ID": "2016-059E", "EPOCH": "2025-12-06T14:03:07.446240", "MEAN_MOTION": 14.67304824, "ECCENTRICITY": 0.00300327, "INCLINATION": 97.8138, "RA_OF_ASC_NODE": 343.6448, "ARG_OF_PERICENTER": 99.8924, "MEAN_ANOMALY": 260.5674, "EPHEMERIS_TYPE": 0, "CLASSIFICATION_TYPE": "U", "NORAD_CAT_ID": 41787, "ELEMENT_SET_NO": 999, "REV_AT_EPOCH": 49146, "BSTAR": 0.00027378617, "MEAN_MOTION_DOT": 1.509e-05, "MEAN_MOTION_DDOT": 0}, "tle": {"line1": "1 41787U 16059E   25340.58550285  .00001509  00000+0  27379-3 0  9995", "line2": "2 41787  97.8138 343.6448 0030032  99.8924 260.5674 14.67304824491469"}}, "geometry": {"type": "Point", "coordinates": [163.0557935530976, -8.729737087261663]}}, {"type": "Feature", "properties": {"norad_id": 41790, "name": "SCATSAT 1", "group": "resource", "lat": -48.22492192183633, "lon": 47.06473046192695, "alt_km": 677.6743233491343, "timestamp": "2025-12-07T05:38:09.565444+00:00", "meta": {"OBJECT_NAME": "SCATSAT 1", "OBJECT_ID": "2016-059H", "EPOCH": "2025-12-06T15:14:40.981056", "MEAN_MOTION": 14.78905199, "ECCENTRICITY": 0.0055995, "INCLINATION": 98.1471, "RA_OF_ASC_NODE": 37.2296, "ARG_OF_PERICENTER": 147.3077, "MEAN_ANOMALY": 213.162, "EPHEMERIS_TYPE": 0, "CLASSIFICATION_TYPE": "U", "NORAD_CAT_ID": 41790, "ELEMENT_SET_NO": 999, "REV_AT_EPOCH": 7312, "BSTAR": 0.00044817585, "MEAN_MOTION_DOT": 3.335e-05, "MEAN_MOTION_DDOT": 0}, "tle": {"line1": "1 41790U 16059H   25340.63519654  .00003335  00000+0  44818-3 0  9996", "line2": "2 41790  98.1471  37.2296 0055995 147.3077 213.1620 14.78905199 73125"}}, "geometry": {"type": "Point", "coordinates": [47.06473046192695, -48.22492192183633]}}, {"type": "Feature", "properties": {"norad_id": 41875, "name": "GOKTURK 1A", "group": "resource", "lat": -4.8859027405976905, "lon": -125.62529161695069, "alt_km": 687.7816332324537, "timestamp": "2025-12-07T05:38:09.565454+00:00", "meta": {"OBJECT_NAME": "GOKTURK 1A", "OBJECT_ID": "2016-073A", "EPOCH": "2025-12-06T14:52:59.467872", "MEAN_MOTION": 14.62768822, "ECCENTRICITY": 0.00012337, "INCLINATION": 98.1436, "RA_OF_ASC_NODE": 233.067, "ARG_OF_PERICENTER": 82.7016, "MEAN_ANOMALY": 277.4326, "EPHEMERIS_TYPE": 0, "CLASSIFICATION_TYPE": "U", "NORAD_CAT_ID": 41875, "ELEMENT_SET_NO": 999, "REV_AT_EPOCH": 48067, "BSTAR": 0.00021714022, "MEAN_MOTION_DOT": 1.06e-05, "MEAN_MOTION_DDOT": 0}, "tle": {"line1": "1 41875U 16073A   25340.62013273  .00001060  00000+0  21714-3 0  9994", "line2": "2 41875  98.1436 233.0670 0001233  82.7016 277.4326 14.62768822480674"}}, "geometry": {"type": "Point", "coordinates": [-125.62529161695069, -4.8859027405976905]}}, {"type": "Feature", "properties": {"norad_id": 41877, "name": "RESOURCESAT-2A", "group": "resource", "lat": 40.61825559357159, "lon": -121.26332679657196, "alt_km": 817.3601738813632, "timestamp": "2025-12-07T05:38:09.565464+00:00", "meta": {"OBJECT_NAME": "RESOURCESAT-2A", "OBJECT_ID": "2016-074A", "EPOCH": "2025-12-06T15:28:19.262496", "MEAN_MOTION": 14.21595672, "ECCENTRICITY": 0.00011208, "INCLINATION": 98.7766, "RA_OF_ASC_NODE": 50.536, "ARG_OF_PERICENTER": 284.1853, "MEAN_ANOMALY": 75.92, "EPHEMERIS_TYPE": 0, "CLASSIFICATION_TYPE": "U", "NORAD_CAT_ID": 41877, "ELEMENT_SET_NO": 999, "REV_AT_EPOCH": 46694, "BSTAR": 0.00018238142, "MEAN_MOTION_DOT": 3.55e-06, "MEAN_MOTION_DDOT": 0}, "tle": {"line1": "1 41877U 16074A   25340.64466739  .00000355  00000+0  18238-3 0  9991", "line2": "2 41877  98.7766  50.5360 0001120 284.1853  75.9200 14.21595672466940"}}, "geometry": {"type": "Point", "coordinates": [-121.26332679657196, 40.61825559357159]}}, {"type": "Feature", "properties": {"norad_id": 41948, "name": "CARTOSAT-2D", "group": "resource", "lat": 13.597274370966966, "lon": 37.00514625015485, "alt_km": 512.2414126287995, "timestamp": "2025-12-07T05:38:09.565474+00:00", "meta": {"OBJECT_NAME": "CARTOSAT-2D", "OBJECT_ID": "2017-008A", "EPOCH": "2025-12-06T15:20:54.234240", "MEAN_MOTION": 15.19167369, "ECCENTRICITY": 0.00041239, "INCLINATION": 97.4397, "RA_OF_ASC_NODE": 38.2301, "ARG_OF_PERICENTER": 182.6782, "MEAN_ANOMALY": 177.4432, "EPHEMERIS_TYPE": 0, "CLASSIFICATION_TYPE": "U", "NORAD_CAT_ID": 41948, "ELEMENT_SET_NO": 999, "REV_AT_EPOCH": 48834, "BSTAR": 0.00043939106, "MEAN_MOTION_DOT": 9.177e-05, "MEAN_MOTION_DDOT": 0}, "tle": {"line1": "1 41948U 17008A   25340.63951660  .00009177  00000+0  43939-3 0  9996", "line2": "2 41948  97.4397  38.2301 0004123 182.6782 177.4432 15.19167369488341"}}, "geometry": {"type": "Point", "coordinates": [37.00514625015485, 13.597274370966966]}}, {"type": "Feature", "properties": {"norad_id": 42063, "name": "SENTINEL-2B", "group": "resource", "lat": -72.81697996315476, "lon": 82.95431130084773, "alt_km": 797.1003630591895, "timestamp": "2025-12-07T05:38:09.565484+00:00", "meta": {"OBJECT_NAME": "SENTINEL-2B", "OBJECT_ID": "2017-013A", "EPOCH": "2025-12-06T14:52:53.025888", "MEAN_MOTION": 14.3081242, "ECCENTRICITY": 0.0001131, "INCLINATION": 98.5725, "RA_OF_ASC_NODE": 53.1519, "ARG_OF_PERICENTER": 97.8714, "MEAN_ANOMALY": 262.2598, "EPHEMERIS_TYPE": 0, "CLASSIFICATION_TYPE": "U", "NORAD_CAT_ID": 42063, "ELEMENT_SET_NO": 999, "REV_AT_EPOCH": 45710, "BSTAR": 0.00014259955, "MEAN_MOTION_DOT": 3.3e-06, "MEAN_MOTION_DDOT": 0}, "tle": {"line1": "1 42063U 17013A   25340.62005817  .00000330  00000+0  14260-3 0  9991", "line2": "2 42063  98.5725  53.1519 0001131  97.8714 262.2598 14.30812420457105"}}, "geometry": {"type": "Point", "coordinates": [82.95431130084773, -72.81697996315476]}}, {"type": "Feature", "properties": {"norad_id": 42767, "name": "CARTOSAT-2E", "group": "resource", "lat": -74.19998758566464, "lon": 66.46327455106743, "alt_km": 513.9086696946233, "timestamp": "2025-12-07T05:38:09.565494+00:00", "meta": {"OBJECT_NAME": "CARTOSAT-2E", "OBJECT_ID": "2017-036C", "EPOCH": "2025-12-06T15:44:36.297024", "MEAN_MOTION": 15.19230274, "ECCENTRICITY": 0.00023744, "INCLINATION": 97.4563, "RA_OF_ASC_NODE": 38.322, "ARG_OF_PERICENTER": 268.2438, "MEAN_ANOMALY": 91.8525, "EPHEMERIS_TYPE": 0, "CLASSIFICATION_TYPE": "U", "NORAD_CAT_ID": 42767, "ELEMENT_SET_NO": 999, "REV_AT_EPOCH": 46891, "BSTAR": 0.00043878497, "MEAN_MOTION_DOT": 9.18e-05, "MEAN_MOTION_DDOT": 0}, "tle": {"line1": "1 42767U 17036C   25340.65597566  .00009180  00000+0  43878-3 0  9996", "line2": "2 42767  97.4563  38.3220 0002374 268.2438  91.8525 15.19230274468911"}}, "geometry": {"type": "Point", "coordinates": [66.46327455106743, -74.19998758566464]}}, {"type": "Feature", "properties": {"norad_id": 42920, "name": "FORMOSAT-5", "group": "resource", "lat": -66.21535679997295, "lon": -143.54713809015166, "alt_km": 726.7564942383351, "timestamp": "2025-12-07T05:38:09.565504+00:00", "meta": {"OBJECT_NAME": "FORMOSAT-5", "OBJECT_ID": "2017-049A", "EPOCH": "2025-12-06T15:15:27.132480", "MEAN_MOTION": 14.50999867, "ECCENTRICITY": 0.00101355, "INCLINATION": 98.2459, "RA_OF_ASC_NODE": 55.0757, "ARG_OF_PERICENTER": 316.0989, "MEAN_ANOMALY": 43.94, "EPHEMERIS_TYPE": 0, "CLASSIFICATION_TYPE": "U", "NORAD_CAT_ID": 42920, "ELEMENT_SET_NO": 999, "REV_AT_EPOCH": 43875, "BSTAR": 0.00014431343, "MEAN_MOTION_DOT": 5.27e-06, "MEAN_MOTION_DDOT": 0}, "tle": {"line1": "1 42920U 17049A   25340.63573070  .00000527  00000+0  14431-3 0  9992", "line2": "2 42920  98.2459  55.0757 0010135 316.0989  43.9400 14.50999867438756"}}, "geometry": {"type": "Point", "coordinates": [-143.54713809015166, -66.21535679997295]}}]}